STARLINK-2022           
1 47643U 21012Z   24122.94760934  .00008424  00000+0  58328-3 0  9999
2 47643  53.0520 209.6272 0000412 120.0961 240.0069 15.06430596177741
